HST                     
1 20580U 90037B   26068.15977042  .00009063  00000+0  30023-3 0  9999
2 20580  28.4717  43.6133 0001837 120.9992 239.0785 15.29473555773239
ION SCV-004             
1 50993U 22002K   26068.68892644  .00006538  00000+0  23198-3 0  9998
2 50993  97.2961 128.2294 0007216   1.6783 358.4480 15.29369331230088
